{"version": 0.6, "generator": "Overpass API 0.7.56.9 76e5016d", "osm3s": {"timestamp_osm_base": "2021-08-26T02:41:57Z", "copyright": "The data included in this document is from www.openstreetmap.org. The data is made available under ODbL."}, "elements": [{"type": "node", "id": 1579221913, "lat": 22.963424, "lon": 88.4734904}, {"type": "node", "id": 1579221927, "lat": 22.9636265, "lon": 88.4735548}, {"type": "node", "id": 1579221930, "lat": 22.9638216, "lon": 88.4726804}, {"type": "node", "id": 1579221932, "lat": 22.963787, "lon": 88.4734394}, {"type": "node", "id": 1579221934, "lat": 22.9637525, "lon": 88.4732973}, {"type": "node", "id": 1579221935, "lat": 22.9644269, "lon": 88.4728378}, {"type": "node", "id": 1579221936, "lat": 22.9634907, "lon": 88.4736674}, {"type": "node", "id": 1579221937, "lat": 22.9630931, "lon": 88.4732571}, {"type": "node", "id": 1579221938, "lat": 22.9638685, "lon": 88.4727957}, {"type": "node", "id": 1579221948, "lat": 22.9642028, "lon": 88.4727461}, {"type": "node", "id": 1579221951, "lat": 22.9635228, "lon": 88.4730157}, {"type": "node", "id": 1579221954, "lat": 22.9634981, "lon": 88.4728199}, {"type": "node", "id": 1579221956, "lat": 22.9638265, "lon": 88.473485}, {"type": "node", "id": 1579221958, "lat": 22.9638661, "lon": 88.4733241}, {"type": "node", "id": 1579221959, "lat": 22.9635821, "lon": 88.4738606}, {"type": "node", "id": 1579221961, "lat": 22.9633993, "lon": 88.4734475}, {"type": "node", "id": 1579221963, "lat": 22.9641007, "lon": 88.4728011}, {"type": "node", "id": 1579221965, "lat": 22.964214, "lon": 88.4729697}, {"type": "node", "id": 1579221973, "lat": 22.9634487, "lon": 88.4728842}, {"type": "node", "id": 1579221975, "lat": 22.9640982, "lon": 88.4731364}, {"type": "node", "id": 1579221978, "lat": 22.9634684, "lon": 88.4729191}, {"type": "node", "id": 1579221981, "lat": 22.9637055, "lon": 88.4732034}, {"type": "node", "id": 1579221983, "lat": 22.9633631, "lon": 88.4732557}, {"type": "node", "id": 1579221985, "lat": 22.9635771, "lon": 88.4733724}, {"type": "node", "id": 1579221986, "lat": 22.9639327, "lon": 88.4730827}, {"type": "node", "id": 1579221988, "lat": 22.9639648, "lon": 88.473198}, {"type": "node", "id": 1579221998, "lat": 22.9640587, "lon": 88.4731042}, {"type": "node", "id": 1579222000, "lat": 22.9639426, "lon": 88.4726133}, {"type": "node", "id": 1579222002, "lat": 22.9639945, "lon": 88.4730827}, {"type": "node", "id": 1579222004, "lat": 22.9636265, "lon": 88.4730827}, {"type": "node", "id": 1579222006, "lat": 22.9637031, "lon": 88.4729942}, {"type": "node", "id": 1579222007, "lat": 22.963545, "lon": 88.4729942}, {"type": "node", "id": 1579222009, "lat": 22.9639278, "lon": 88.4732141}, {"type": "node", "id": 1579222011, "lat": 22.9637599, "lon": 88.473249}, {"type": "node", "id": 1579222012, "lat": 22.9640414, "lon": 88.4732249}, {"type": "node", "id": 1579222025, "lat": 22.9634635, "lon": 88.473528}, {"type": "node", "id": 1579222027, "lat": 22.9640859, "lon": 88.4727662}, {"type": "node", "id": 1579222029, "lat": 22.9639089, "lon": 88.4733952}, {"type": "node", "id": 1579222031, "lat": 22.9630519, "lon": 88.4733979}, {"type": "node", "id": 1579222033, "lat": 22.9632816, "lon": 88.4734649}, {"type": "node", "id": 1579222034, "lat": 22.9635228, "lon": 88.4728386}, {"type": "node", "id": 1579222035, "lat": 22.9633919, "lon": 88.4734234}, {"type": "node", "id": 1579222036, "lat": 22.9640093, "lon": 88.4729245}, {"type": "node", "id": 1579222037, "lat": 22.9635993, "lon": 88.4728601}, {"type": "node", "id": 1579222052, "lat": 22.9635129, "lon": 88.4735521}, {"type": "node", "id": 1579222055, "lat": 22.9633425, "lon": 88.4732866}, {"type": "node", "id": 1579222056, "lat": 22.9638191, "lon": 88.4730559}, {"type": "node", "id": 1579222058, "lat": 22.9641624, "lon": 88.4728225}, {"type": "node", "id": 1579222059, "lat": 22.9636364, "lon": 88.4736621}, {"type": "node", "id": 1579222060, "lat": 22.9641287, "lon": 88.472958}, {"type": "node", "id": 1579222061, "lat": 22.9639707, "lon": 88.4726656}, {"type": "node", "id": 1579222062, "lat": 22.9643755, "lon": 88.4729642}, {"type": "node", "id": 1579222067, "lat": 22.9635895, "lon": 88.4728815}, {"type": "node", "id": 1579222070, "lat": 22.964239, "lon": 88.4729137}, {"type": "node", "id": 1579222073, "lat": 22.9641377, "lon": 88.4729379}, {"type": "node", "id": 1579222076, "lat": 22.964062, "lon": 88.47273}, {"type": "node", "id": 1579222079, "lat": 22.9633055, "lon": 88.4733992}, {"type": "node", "id": 1579222080, "lat": 22.9638661, "lon": 88.4731015}, {"type": "node", "id": 1579222081, "lat": 22.9637001, "lon": 88.4737822}, {"type": "node", "id": 1579222082, "lat": 22.9634536, "lon": 88.4729459}, {"type": "node", "id": 1579222083, "lat": 22.9635508, "lon": 88.4728051}, {"type": "node", "id": 1579222087, "lat": 22.9638759, "lon": 88.4733643}, {"type": "node", "id": 1579222089, "lat": 22.9640216, "lon": 88.4726911}, {"type": "node", "id": 1579222091, "lat": 22.9636685, "lon": 88.4736299}, {"type": "node", "id": 1579222093, "lat": 22.963624, "lon": 88.4734475}, {"type": "node", "id": 1579222095, "lat": 22.9634734, "lon": 88.4732866}, {"type": "node", "id": 1579222097, "lat": 22.963871, "lon": 88.4732812}, {"type": "node", "id": 1579222099, "lat": 22.96395, "lon": 88.4728815}, {"type": "node", "id": 1579222100, "lat": 22.9632495, "lon": 88.4733067}, {"type": "node", "id": 1579222101, "lat": 22.9635425, "lon": 88.4736218}, {"type": "node", "id": 1579222102, "lat": 22.9636537, "lon": 88.473528}, {"type": "node", "id": 1579222104, "lat": 22.9637648, "lon": 88.4733831}, {"type": "node", "id": 1579222106, "lat": 22.9640068, "lon": 88.4732007}, {"type": "node", "id": 1579222108, "lat": 22.9632643, "lon": 88.4732664}, {"type": "node", "id": 1579222110, "lat": 22.9638908, "lon": 88.4732436}, {"type": "node", "id": 1608404658, "lat": 22.957193, "lon": 88.4697837}, {"type": "node", "id": 1608404659, "lat": 22.9572647, "lon": 88.4695262}, {"type": "node", "id": 1608404660, "lat": 22.9572869, "lon": 88.4695879}, {"type": "node", "id": 1608404661, "lat": 22.9572597, "lon": 88.4697837}, {"type": "node", "id": 1608404668, "lat": 22.9572622, "lon": 88.4695879}, {"type": "node", "id": 1608404670, "lat": 22.9572647, "lon": 88.4693385}, {"type": "node", "id": 1608404672, "lat": 22.9572053, "lon": 88.4693361}, {"type": "node", "id": 1608404674, "lat": 22.9572867, "lon": 88.4695266}, {"type": "node", "id": 2167488187, "lat": 22.7586464, "lon": 88.3707083, "tags": {"amenity": "hospital", "emergency": "no", "name": "XPons Doctor's Clinic", "source": "Survey"}}, {"type": "node", "id": 2962681107, "lat": 22.7537684, "lon": 88.5199042, "tags": {"addr:city": "Bamangachi,Kolkata", "addr:postcode": "743248", "addr:street": "Notun Bazar Road", "amenity": "clinic", "name": "Seva Ckinic-Dr. M Rahaman"}}, {"type": "node", "id": 3156614418, "lat": 22.7762313, "lon": 88.3471695}, {"type": "node", "id": 3156614422, "lat": 22.7758553, "lon": 88.3470408}, {"type": "node", "id": 3156614814, "lat": 22.7751751, "lon": 88.3475068}, {"type": "node", "id": 3156614835, "lat": 22.7753278, "lon": 88.3470436}, {"type": "node", "id": 3157495678, "lat": 22.7752866, "lon": 88.3476242}, {"type": "node", "id": 3157495744, "lat": 22.7757639, "lon": 88.3479997}, {"type": "node", "id": 3157495746, "lat": 22.7751553, "lon": 88.3475571}, {"type": "node", "id": 3157495799, "lat": 22.7763041, "lon": 88.3472774}, {"type": "node", "id": 3512180260, "lat": 22.9691493, "lon": 88.4651991}, {"type": "node", "id": 3512180261, "lat": 22.969054, "lon": 88.4654153}, {"type": "node", "id": 3512180262, "lat": 22.9688681, "lon": 88.4653186}, {"type": "node", "id": 3512180263, "lat": 22.9689497, "lon": 88.4651337}, {"type": "node", "id": 3512180264, "lat": 22.9680932, "lon": 88.4655028}, {"type": "node", "id": 3512180265, "lat": 22.9679589, "lon": 88.4657447}, {"type": "node", "id": 3512180266, "lat": 22.9678616, "lon": 88.465681}, {"type": "node", "id": 3512180267, "lat": 22.9679958, "lon": 88.4654391}, {"type": "node", "id": 3522898216, "lat": 22.9702154, "lon": 88.4643514}, {"type": "node", "id": 3522898217, "lat": 22.9702104, "lon": 88.4644614}, {"type": "node", "id": 3522898218, "lat": 22.9701092, "lon": 88.4644587}, {"type": "node", "id": 3522898219, "lat": 22.9701215, "lon": 88.4643273}, {"type": "node", "id": 3522898222, "lat": 22.9679508, "lon": 88.462962, "tags": {"addr:city": "Kalyani", "addr:postcode": "741235", "amenity": "clinic", "name": "Divine Care"}}, {"type": "node", "id": 3523734499, "lat": 22.9787861, "lon": 88.4357678}, {"type": "node", "id": 3523734500, "lat": 22.9786972, "lon": 88.435698}, {"type": "node", "id": 3523734501, "lat": 22.978628, "lon": 88.4358643}, {"type": "node", "id": 3523734502, "lat": 22.9787021, "lon": 88.4359233}, {"type": "node", "id": 3606210946, "lat": 22.9609469, "lon": 88.5188385, "tags": {"amenity": "clinic", "name": "Medical Unit"}}, {"type": "node", "id": 3628604319, "lat": 22.6914403, "lon": 88.4666424}, {"type": "node", "id": 3628604336, "lat": 22.6915688, "lon": 88.4666068}, {"type": "node", "id": 3628604341, "lat": 22.6916178, "lon": 88.4663229}, {"type": "node", "id": 3628604342, "lat": 22.6916229, "lon": 88.4662888}, {"type": "node", "id": 3628604351, "lat": 22.6917787, "lon": 88.4663507}, {"type": "node", "id": 3628604354, "lat": 22.6917948, "lon": 88.4662418}, {"type": "node", "id": 3628604357, "lat": 22.6918048, "lon": 88.4666314}, {"type": "node", "id": 3628604359, "lat": 22.6918131, "lon": 88.4665749}, {"type": "node", "id": 3628604371, "lat": 22.6918863, "lon": 88.4665876}, {"type": "node", "id": 3628604373, "lat": 22.6919338, "lon": 88.4662659}, {"type": "node", "id": 3664446690, "lat": 22.691492, "lon": 88.4662661}, {"type": "node", "id": 3664446691, "lat": 22.6915581, "lon": 88.4666629}, {"type": "node", "id": 3664446695, "lat": 22.6916061, "lon": 88.4664436}, {"type": "node", "id": 3664446696, "lat": 22.6916072, "lon": 88.4664834}, {"type": "node", "id": 3664446698, "lat": 22.6916166, "lon": 88.4664108}, {"type": "node", "id": 3664446699, "lat": 22.6916371, "lon": 88.4665126}, {"type": "node", "id": 3664446704, "lat": 22.6916927, "lon": 88.4665219}, {"type": "node", "id": 3664446705, "lat": 22.6916931, "lon": 88.4666479}, {"type": "node", "id": 3664446706, "lat": 22.6917012, "lon": 88.4666134}, {"type": "node", "id": 3664446709, "lat": 22.691725, "lon": 88.466502}, {"type": "node", "id": 3664446712, "lat": 22.6917383, "lon": 88.4664742}, {"type": "node", "id": 3664446713, "lat": 22.6917428, "lon": 88.4664347}, {"type": "node", "id": 3664457328, "lat": 22.691873, "lon": 88.466507}, {"type": "node", "id": 3664457329, "lat": 22.6918778, "lon": 88.4664745}, {"type": "node", "id": 3664457333, "lat": 22.6918976, "lon": 88.4665112}, {"type": "node", "id": 3664457334, "lat": 22.6918978, "lon": 88.4663598}, {"type": "node", "id": 3664457335, "lat": 22.6919022, "lon": 88.4663295}, {"type": "node", "id": 3664457336, "lat": 22.6919023, "lon": 88.4664787}, {"type": "node", "id": 3664457340, "lat": 22.6919194, "lon": 88.4663635}, {"type": "node", "id": 3664457341, "lat": 22.6919238, "lon": 88.4663333}, {"type": "node", "id": 3717045273, "lat": 22.8654128, "lon": 88.3702773}, {"type": "node", "id": 3717045291, "lat": 22.8657493, "lon": 88.3694336}, {"type": "node", "id": 3717045292, "lat": 22.8657513, "lon": 88.3704246}, {"type": "node", "id": 3717045297, "lat": 22.8660622, "lon": 88.3695895}, {"type": "node", "id": 3827017857, "lat": 22.9707724, "lon": 88.4651161, "tags": {"amenity": "hospital", "name": "Kalyani Eye Care and Laser Clinic"}}, {"type": "node", "id": 3827017858, "lat": 22.9687125, "lon": 88.4652265, "tags": {"amenity": "hospital", "name": "Royal Vision"}}, {"type": "node", "id": 3827017860, "lat": 22.9686793, "lon": 88.4652182, "tags": {"addr:city": "Kalyani", "addr:postcode": "741235", "amenity": "hospital", "name": "B C Roy Eye Clinic"}}, {"type": "node", "id": 3860610108, "lat": 22.9734061, "lon": 88.4556102, "tags": {"addr:city": "Kalyani", "addr:postcode": "741235", "amenity": "hospital", "name": "Manav Jiban Pharmacy"}}, {"type": "node", "id": 3860641390, "lat": 22.9792698, "lon": 88.4372693, "tags": {"addr:city": "Kalyani", "addr:postcode": "741235", "amenity": "hospital", "name": "Kalyani Nursing Home"}}, {"type": "node", "id": 3860641392, "lat": 22.9803156, "lon": 88.437854, "tags": {"addr:city": "Kalyani", "addr:postcode": "741235", "amenity": "hospital", "name": "Apollo Pharmacy"}}, {"type": "node", "id": 4265807397, "lat": 22.9707725, "lon": 88.4639288}, {"type": "node", "id": 4265807398, "lat": 22.9707478, "lon": 88.4640066}, {"type": "node", "id": 4265807399, "lat": 22.9706416, "lon": 88.4639798}, {"type": "node", "id": 4265807400, "lat": 22.9706713, "lon": 88.4638913}, {"type": "node", "id": 4265807402, "lat": 22.9685734, "lon": 88.4659874}, {"type": "node", "id": 4265807403, "lat": 22.9684845, "lon": 88.4661269}, {"type": "node", "id": 4265807404, "lat": 22.968445, "lon": 88.4661215}, {"type": "node", "id": 4265807405, "lat": 22.9685364, "lon": 88.4659579}, {"type": "node", "id": 4265807406, "lat": 22.9685141, "lon": 88.4659498}, {"type": "node", "id": 4265807407, "lat": 22.9684228, "lon": 88.4661108}, {"type": "node", "id": 4265807408, "lat": 22.9683437, "lon": 88.4660571}, {"type": "node", "id": 4265807409, "lat": 22.9684376, "lon": 88.4658989}, {"type": "node", "id": 4265807418, "lat": 22.9681814, "lon": 88.4644156, "tags": {"addr:city": "Kalyani", "addr:postcode": "741235", "amenity": "clinic", "healthcare": "physiotherapist", "name": "Ceragem Physiotherapy center"}}, {"type": "node", "id": 4936553840, "lat": 22.7515849, "lon": 88.3710265, "tags": {"addr:district": "North 24 Parganas", "addr:full": "B.T. Road, Opp. Government High School, Barrackpore", "addr:postcode": "700123", "addr:state": "West Bengal", "addr:subdistrict": "Barrackpur - II", "amenity": "hospital", "description": "Sub-District Hospital", "name": "Dr. B.N.Bose Sub-divisional Hospital", "source": "OpenGovernmentData"}}, {"type": "node", "id": 7048075975, "lat": 22.6845585, "lon": 88.3544138, "tags": {"addr:district": "Hooghly", "addr:full": "252/5K, Grand Trunk Road, Opposite Kotrung Adarsha Vidyalay,Kotrung, Uttarpara", "addr:postcode": "712233", "addr:state": "West Bengal", "amenity": "hospital", "contact:phone": "3326946225", "name": "Re - Life Hospital", "source": "OpenGovernmentData"}}, {"type": "node", "id": 7048246073, "lat": 22.894594, "lon": 88.3972574, "tags": {"addr:district": "Hooghly", "addr:full": "Chinsurah Marg,Mallick Kasem Hat Rd", "addr:postcode": "712101", "addr:state": "West Bengal", "amenity": "hospital", "name": "R.M.Eye Foundation", "source": "OpenGovernmentData", "website": "https://rmeye-foundation.business.site/"}}, {"type": "node", "id": 7048261996, "lat": 22.7264738, "lon": 88.3792772, "tags": {"addr:district": "North 24 Parganas", "addr:full": "153/155, New Colony, Paschimparam,Rahara", "addr:postcode": "700118", "addr:state": "West Bengal", "amenity": "hospital", "name": "Punarjyoti Eye Care", "source": "OpenGovernmentData"}}, {"type": "node", "id": 7048262943, "lat": 22.8913861, "lon": 88.4195325, "tags": {"addr:district": "North 24 Parganas", "addr:full": "231/1, Rishi Bankim Chandra Road,P O Naihati", "addr:postcode": "743165", "addr:state": "West Bengal", "amenity": "clinic", "contact:phone": "03325812429;25812344", "name": "Green View Clinic And Nursing Home", "source": "OpenGovernmentData"}}, {"type": "node", "id": 7048286420, "lat": 22.6937332, "lon": 88.3754235, "tags": {"addr:district": "Kolkata", "addr:full": "B.T.Road,Swasti Nagar,Panihati", "addr:postcode": "700114", "addr:state": "West Bengal", "amenity": "clinic", "contact:phone": "30626386;25630496", "name": "Green-View Nursing Home, Kolkata", "source": "OpenGovernmentData"}}, {"type": "node", "id": 7048426188, "lat": 22.8977645, "lon": 88.4191238, "tags": {"addr:district": "North 24 Parganas", "addr:full": "252, Rishi Bankim Chandra Road Naihati", "addr:postcode": "743166", "addr:state": "West Bengal", "amenity": "hospital", "contact:phone": "03325815137;25815233", "name": "Naihati Health Care Institute", "source": "OpenGovernmentData"}}, {"type": "node", "id": 7048471636, "lat": 22.8568981, "lon": 88.5314651, "tags": {"addr:district": "North 24 Parganas", "addr:full": "Awalsiddhi More,Naihati - Habra Road", "addr:postcode": "743221", "addr:state": "West Bengal", "amenity": "clinic", "name": "Happy Life Nursing Home", "source": "OpenGovernmentData"}}, {"type": "node", "id": 7048650797, "lat": 22.7543237, "lon": 88.3426247, "tags": {"addr:district": "Hooghly", "addr:full": "8A, K M Shah St. Serampur", "addr:postcode": "712201", "addr:state": "West Bengal", "amenity": "clinic", "name": "Serampore Surgical Nursing Home", "source": "OpenGovernmentData"}}, {"type": "node", "id": 7048781549, "lat": 22.6929042, "lon": 88.3980869, "tags": {"addr:district": "North 24 Parganas", "addr:full": "Sodepur Barasat Road, Ghola, Sodepur", "addr:postcode": "700111", "addr:state": "West Bengal", "addr:subdistrict": "Barrackpur - I", "amenity": "hospital", "name": "Panihati State General Hospital", "source": "OpenGovernmentData", "website": "https://panihatimunicipality.in/"}}, {"type": "node", "id": 7048783845, "lat": 22.8404264, "lon": 88.3615418, "tags": {"addr:district": "Hooghly", "addr:full": "990,Chakraborty Para Barasat,P O & Ps Chandanagar", "addr:postcode": "712136", "addr:state": "West Bengal", "amenity": "clinic", "name": "Pandey Sebayan Nursing Home", "source": "OpenGovernmentData"}}, {"type": "node", "id": 7048796206, "lat": 22.7670766, "lon": 88.3714767, "tags": {"addr:district": "North 24 Parganas", "addr:full": "32/8, Barasat Road, Near Railway Gate No 15,Barrackpore", "addr:postcode": "700122", "addr:state": "West Bengal", "amenity": "clinic", "contact:phone": "03325928794;24929713", "name": "Panacea Nursing Home", "source": "OpenGovernmentData"}}, {"type": "node", "id": 7050784744, "lat": 22.7495595, "lon": 88.3510577, "tags": {"addr:district": "Hooghly", "addr:full": "10/B, Acharya K. C. Bhattacharya Street, Serampore", "addr:postcode": "712201", "addr:state": "West Bengal", "amenity": "clinic", "healthcare": "clinic", "name": "United Nursing Home (P) Ltd.", "source": "OpenGovernmentData"}}, {"type": "node", "id": 7050847248, "lat": 22.6997425, "lon": 88.3752036, "tags": {"addr:district": "North 24 Parganas", "addr:full": "177,FBT Road,Panihati,Sodepur", "addr:postcode": "700114", "addr:state": "West Bengal", "amenity": "hospital", "contact:phone": "3339890600", "name": "Vasan Eye Care Hospital, Sodepur", "source": "OpenGovernmentData", "website": "vasaneye.com"}}, {"type": "node", "id": 7050858894, "lat": 22.7776894, "lon": 88.3250497, "tags": {"addr:district": "Hooghly", "addr:full": "2, Nonadanga Road, Sheoraphuli", "addr:postcode": "712223", "addr:state": "West Bengal", "amenity": "clinic", "contact:phone": "26324025", "name": "Mamata Nursing Home, Hooghly", "source": "OpenGovernmentData"}}, {"type": "node", "id": 7050865053, "lat": 22.8897775, "lon": 88.4216045, "tags": {"addr:district": "North 24 Parganas", "addr:full": "Talpukur Road, Naihati", "addr:postcode": "743165", "addr:state": "West Bengal", "amenity": "clinic", "name": "Malancha Nursing Home", "source": "OpenGovernmentData"}}, {"type": "node", "id": 7050985517, "lat": 22.9474593, "lon": 88.446824, "tags": {"addr:district": "North 24 Parganas", "addr:full": "Bijoy, Kanchrapara M", "addr:postcode": "743145", "addr:state": "West Bengal", "amenity": "clinic", "contact:phone": "25859588", "name": "Night Angel Nursing Home", "source": "OpenGovernmentData"}}, {"type": "node", "id": 7051046032, "lat": 22.7239238, "lon": 88.4926146, "tags": {"addr:district": "North 24 Parganas", "addr:full": "111/1,Jessore Road,Barasat", "addr:postcode": "700124", "addr:state": "West Bengal", "amenity": "hospital", "contact:phone": "03325840452;25840452", "name": "Eco Hospital and Diagnostics", "source": "OpenGovernmentData", "website": "ecohospital.co.in"}}, {"type": "node", "id": 7051051949, "lat": 22.9686609, "lon": 88.4661426, "tags": {"addr:district": "Nadia", "addr:full": "A-9X/4(S),Kalyani", "addr:postcode": "741235", "addr:state": "West Bengal", "amenity": "hospital", "name": "Elite Eyecare and Microsurgery Centre", "source": "OpenGovernmentData"}}, {"type": "node", "id": 7051128544, "lat": 22.9131363, "lon": 88.3968477, "tags": {"addr:district": "Hooghly", "addr:full": "Near Old Launch Ghat, Barabazar,P.O.Chinsura", "addr:postcode": "712101", "addr:state": "West Bengal", "amenity": "hospital", "name": "EMLC Eye Microsurgery and Laser Centre", "source": "OpenGovernmentData"}}, {"type": "node", "id": 7051162479, "lat": 22.6987577, "lon": 88.3866258, "tags": {"addr:district": "North 24 Parganas", "addr:full": "A/13,Amarabati,Sodepur", "addr:postcode": "700110", "addr:state": "West Bengal", "amenity": "clinic", "contact:phone": "25651057", "name": "Eye Care", "source": "OpenGovernmentData"}}, {"type": "node", "id": 7051176618, "lat": 22.7588628, "lon": 88.373035, "tags": {"addr:district": "North 24 Parganas", "addr:full": "5, Middle Road, Anandapuri, Barrackpore", "addr:postcode": "700122", "addr:state": "West Bengal", "amenity": "hospital", "contact:phone": "25921600", "name": "Eyeland Microsurgery Centre", "source": "OpenGovernmentData"}}, {"type": "node", "id": 7051202069, "lat": 22.7514247, "lon": 88.3360028, "tags": {"addr:district": "Hooghly", "addr:full": "61/U,G.T. Road (W), Serampore", "addr:postcode": "712201", "addr:state": "West Bengal", "amenity": "hospital", "name": "Asit Kumar Dey Memorial Crossland Diagnostic Centre", "source": "OpenGovernmentData"}}, {"type": "node", "id": 7051204264, "lat": 22.6941935, "lon": 88.4671082, "tags": {"addr:district": "North 24 Parganas", "addr:full": "104/A, Jessore Road(N), Madhyamgram", "addr:postcode": "700129", "addr:state": "West Bengal", "amenity": "clinic", "contact:phone": "25386829", "name": "Fair Health Nursing Home", "source": "OpenGovernmentData"}}, {"type": "node", "id": 7051341215, "lat": 22.6970039, "lon": 88.4420369, "tags": {"addr:district": "North 24 Parganas", "addr:full": "New Barrakpur,Sodepur Road", "addr:postcode": "700131", "addr:state": "West Bengal", "amenity": "clinic", "contact:phone": "5372474", "name": "Srabani Nursing Home", "source": "OpenGovernmentData"}}, {"type": "node", "id": 7053618304, "lat": 22.7172073, "lon": 88.3695991, "tags": {"addr:district": "Kolkata", "addr:full": "5/1, M.S.M. Road, Khardhah", "addr:postcode": "700116", "addr:state": "West Bengal", "amenity": "hospital", "contact:phone": "3325831616", "name": "Sankara Jyoti Eye Institute", "source": "OpenGovernmentData"}}, {"type": "node", "id": 7053693792, "lat": 22.7668367, "lon": 88.3834232, "tags": {"addr:district": "North 24 Parganas", "addr:full": "114, Barsat Road,Barrackpore,Nonachandanpukur", "addr:postcode": "700122", "addr:state": "West Bengal", "amenity": "hospital", "contact:phone": "03325920730;9830398323", "name": "Sarada Seva Sadan", "source": "OpenGovernmentData"}}, {"type": "node", "id": 7053757747, "lat": 22.6817954, "lon": 88.3864555, "tags": {"addr:district": "Kolkata", "addr:full": "East Station Road, Agarpara", "addr:postcode": "700109", "addr:state": "West Bengal", "amenity": "clinic", "name": "Vijoy Optic and Polyclinic", "source": "OpenGovernmentData"}}, {"type": "node", "id": 7058913042, "lat": 22.6835179, "lon": 88.3546673, "tags": {"addr:district": "Hooghly", "addr:full": "20K, Grand Trunk Road, Hindmotor, Uttarpara", "addr:postcode": "712233", "addr:state": "West Bengal", "amenity": "hospital", "contact:phone": "3326942721", "name": "Kamala Ray Hospital", "source": "OpenGovernmentData"}}, {"type": "node", "id": 7058939199, "lat": 22.7235113, "lon": 88.3754246, "tags": {"addr:district": "North 24 Parganas", "addr:full": "61/169, Surya Sen Station Road, Khardah", "addr:postcode": "700117", "addr:state": "West Bengal", "amenity": "clinic", "name": "Jibandeep Specialist Clinic and Day Care Centre", "source": "OpenGovernmentData"}}, {"type": "node", "id": 7058991562, "lat": 22.8647739, "lon": 88.3932104, "tags": {"addr:district": "North 24 Parganas", "addr:full": "18, E.G.P. Road, Opposite - Paper Mill, P.O. Kankinara", "addr:postcode": "743126", "addr:state": "West Bengal", "amenity": "hospital", "name": "Noor Eye Care", "source": "OpenGovernmentData"}}, {"type": "node", "id": 7059008557, "lat": 22.8310988, "lon": 88.3570138, "tags": {"addr:district": "Hooghly", "addr:full": "Grand Trunk Rd, Shantipally, Bhadreswar", "addr:postcode": "712125", "addr:state": "West Bengal", "amenity": "hospital", "contact:phone": "26337378", "name": "Bhadreswar Municipal Hospital", "source": "OpenGovernmentData", "website": "http://bhadreswarmunicipality-gov.in/"}}, {"type": "node", "id": 7062396401, "lat": 22.7008369, "lon": 88.3789301, "tags": {"addr:district": "Kolkata", "addr:full": "Panihati Municipal Super Market Complex,2nd Floor,Station Road,Sodepur", "addr:postcode": "700110", "addr:state": "West Bengal", "amenity": "clinic", "name": "Restroative Clinic Pvt.Ltd.", "source": "OpenGovernmentData"}}, {"type": "node", "id": 7062470839, "lat": 22.9012267, "lon": 88.3901344, "tags": {"addr:district": "Hooghly", "addr:full": "Vivekananda Road,Karbala More", "addr:postcode": "712103", "addr:state": "West Bengal", "amenity": "clinic", "name": "Amala Nursing Home", "source": "OpenGovernmentData"}}, {"type": "node", "id": 7062470863, "lat": 22.7659536, "lon": 88.4025919, "tags": {"addr:district": "North 24 Parganas", "addr:full": "29, New Panacea Hospital, Debpukur, P.O -Sewli Telenipara, P.S -Titagarh", "addr:postcode": "700121", "addr:state": "West Bengal", "amenity": "hospital", "name": "New Panacea Hospital", "source": "OpenGovernmentData"}}, {"type": "node", "id": 7065232703, "lat": 22.693581, "lon": 88.4664792, "tags": {"addr:district": "North 24 Parganas", "addr:full": "108/1, Jessore Road, Madhyamgram,Chowmatha, P. O. Madhyagram", "addr:postcode": "700129", "addr:state": "West Bengal", "amenity": "hospital", "contact:phone": "25184949", "name": "Spectra Eye Foundation", "source": "OpenGovernmentData", "website": "drananyabratadas.in"}}, {"type": "node", "id": 7065265208, "lat": 22.8213099, "lon": 88.3747315, "tags": {"addr:district": "North 24 Parganas", "addr:full": "Noapara Bi Ln,Shyamnagar", "addr:postcode": "743127", "addr:state": "West Bengal", "amenity": "clinic", "name": "Shyamnagar Nursing Home", "source": "OpenGovernmentData"}}, {"type": "node", "id": 7065628323, "lat": 22.9676673, "lon": 88.4653497, "tags": {"addr:district": "Nadia", "addr:full": "A-9, X/6 (C,A) Kalyani", "addr:postcode": "741235", "addr:state": "West Bengal", "amenity": "clinic", "contact:phone": "65151138", "name": "Apollo Nursing Home", "source": "OpenGovernmentData"}}, {"type": "node", "id": 7065697998, "lat": 22.7236436, "lon": 88.3413729, "tags": {"addr:district": "Hooghly", "addr:full": "25, Sadhan Kanan Block,K.C. Sen Road, P.O. Rishra", "addr:postcode": "712248", "addr:state": "West Bengal", "amenity": "clinic", "healthcare": "clinic", "name": "Das Gupta Nursing Home", "source": "OpenGovernmentData"}}, {"type": "node", "id": 7065866566, "lat": 22.8692195, "lon": 88.3725494, "tags": {"addr:district": "Hooghly", "addr:full": "Chandannagore", "addr:postcode": "712103", "addr:state": "West Bengal", "amenity": "hospital", "name": "Chandannagore (S D ) Hospital", "source": "OpenGovernmentData"}}, {"type": "node", "id": 7065866572, "lat": 22.676905, "lon": 88.4456533, "tags": {"addr:district": "North 24 Parganas", "addr:full": "52,Near Dum Dum Airport,Sukanta Nagar 3Road Sarani,Micheal Nagar", "addr:postcode": "700133", "addr:state": "West Bengal", "amenity": "clinic", "contact:phone": "3325676628", "name": "Mother Nursing Home", "source": "OpenGovernmentData"}}, {"type": "node", "id": 7065868650, "lat": 22.7509403, "lon": 88.3716105, "tags": {"addr:district": "North 24 Parganas", "addr:full": "36, B.T.Road, Talpukur", "addr:postcode": "713213", "addr:state": "West Bengal", "amenity": "hospital", "contact:phone": "25925633", "name": "Mother Teresa (Memorial) Care Home", "source": "OpenGovernmentData"}}, {"type": "node", "id": 7065868654, "lat": 22.9664691, "lon": 88.4727804, "tags": {"addr:district": "Nadia", "addr:full": "Kalyani", "addr:postcode": "741232", "addr:state": "West Bengal", "amenity": "hospital", "name": "Gandhi Memorial Hospital", "source": "OpenGovernmentData"}}, {"type": "node", "id": 7065871454, "lat": 22.7121661, "lon": 88.3733891, "tags": {"addr:district": "North 24 Parganas", "addr:full": "B T Road, 48 Ambagan, Mordern Bus Stop,Sukchar", "addr:postcode": "700115", "addr:state": "West Bengal", "amenity": "hospital", "contact:phone": "03325235464;25235465", "name": "Dewan Medicare And Nursing Home", "source": "OpenGovernmentData"}}, {"type": "node", "id": 7068848834, "lat": 22.7112758, "lon": 88.5165554, "tags": {"addr:district": "North 24 Parganas", "addr:full": "Taki Road, New Primary School, Pigrachho, Barasat", "addr:postcode": "700118", "addr:state": "West Bengal", "amenity": "clinic", "name": "Wafa Nursing Home", "source": "OpenGovernmentData"}}, {"type": "node", "id": 7068848839, "lat": 22.7638138, "lon": 88.3694452, "tags": {"addr:district": "North 24 Parganas", "addr:full": "88(63A), Ghosh Para Road Barrackpore", "addr:postcode": "700120", "addr:state": "West Bengal", "amenity": "hospital", "email": "dishaeyehospitals@gmail.com", "name": "Disha Eye Hospital Barrackpore", "phone": "(033) 6460-6560", "source": "OpenGovernmentData", "website": "http://www.dishaeye.org/"}}, {"type": "node", "id": 7068848844, "lat": 22.757605, "lon": 88.3390552, "tags": {"addr:district": "Hooghly", "addr:full": "58, Thakurdas Babu Lane, Hoogly, Serampore", "addr:postcode": "712201", "addr:state": "West Bengal", "amenity": "hospital", "contact:phone": "3326525122", "name": "Netra Kiran Eye Hospital", "source": "OpenGovernmentData"}}, {"type": "node", "id": 7069051118, "lat": 22.7014415, "lon": 88.3863088, "tags": {"addr:district": "North 24 Parganas", "addr:full": "A11, School Road, Sodepur", "addr:postcode": "700110", "addr:state": "West Bengal", "amenity": "hospital", "name": "Anupama Eye Care", "source": "OpenGovernmentData"}}, {"type": "node", "id": 7069092130, "lat": 22.8889377, "lon": 88.3795381, "tags": {"addr:district": "Hooghly", "addr:full": "Chuchura Station Road", "addr:postcode": "712102", "addr:state": "West Bengal", "amenity": "hospital", "name": "Sunayan Eye Care and Surgery", "source": "OpenGovernmentData"}}, {"type": "node", "id": 7069095509, "lat": 22.7073952, "lon": 88.4756497, "tags": {"addr:district": "North 24 Parganas", "addr:full": "37B, Rathtala Road.Barasat", "addr:postcode": "700124", "addr:state": "West Bengal", "amenity": "clinic", "contact:phone": "25523117", "name": "Dr. Ghoshs Clinic and Nursing Home", "source": "OpenGovernmentData"}}, {"type": "node", "id": 7069095539, "lat": 22.8229113, "lon": 88.3696293, "tags": {"addr:district": "North 24 Parganas", "addr:full": "364 Garulia Main Road", "addr:postcode": "743133", "addr:state": "West Bengal", "amenity": "hospital", "contact:phone": "3325615619", "name": "Namita Maternity and Nursing Home", "source": "OpenGovernmentData"}}, {"type": "node", "id": 7069112468, "lat": 22.7176236, "lon": 88.4888703, "tags": {"addr:district": "North 24 Parganas", "addr:full": "66/2 Nivedita Place, Near Bijaya Cinema, Taki Road, Barasat", "addr:postcode": "700124", "addr:state": "West Bengal", "amenity": "clinic", "name": "New Sevayan Nursing Home", "source": "OpenGovernmentData"}}, {"type": "node", "id": 7069117898, "lat": 22.9690548, "lon": 88.4651884}, {"type": "node", "id": 7069117899, "lat": 22.9690686, "lon": 88.4651571}, {"type": "node", "id": 7069117912, "lat": 22.6921668, "lon": 88.4498629, "tags": {"addr:district": "North 24 Parganas", "addr:full": "Dr. B.C Roy Sarani,Main Road, New Barrackpore", "addr:postcode": "700123", "addr:state": "West Bengal", "amenity": "hospital", "contact:phone": "25375393", "name": "Dr. B.C Roy General Hospital and Maternity Home", "source": "OpenGovernmentData"}}, {"type": "node", "id": 7071390520, "lat": 22.8693989, "lon": 88.3503848, "tags": {"addr:district": "Hooghly", "addr:full": "Khalisani, Bramhanpara, Chandernagor", "addr:postcode": "712138", "addr:state": "West Bengal", "amenity": "hospital", "name": "Dishari (Esopd and Maternity Home)", "source": "OpenGovernmentData"}}, {"type": "node", "id": 7071390541, "lat": 22.7145292, "lon": 88.4662245, "tags": {"addr:district": "Kolkata", "addr:full": "Ramkrishnapally, Barasat", "addr:postcode": "700036", "addr:state": "West Bengal", "amenity": "hospital", "name": "Rog Mookti", "source": "OpenGovernmentData"}}, {"type": "node", "id": 7071390579, "lat": 22.7238798, "lon": 88.4738003, "tags": {"addr:district": "Howrah", "addr:full": "Surendra Nath Road, Nabapally", "addr:postcode": "711204", "addr:state": "West Bengal", "amenity": "hospital", "name": "Care and Cure Hospital", "source": "OpenGovernmentData"}}, {"type": "node", "id": 7071458834, "lat": 22.6854271, "lon": 88.4438688, "tags": {"addr:district": "North 24 Parganas", "addr:full": "near Kodalia School Road, New Barrackpore", "addr:postcode": "700123", "addr:state": "West Bengal", "amenity": "hospital", "name": "New Barrackpur Nursing Home Nursing home", "source": "OpenGovernmentData"}}, {"type": "node", "id": 7071466530, "lat": 22.9141432, "lon": 88.396254, "tags": {"addr:district": "Hooghly", "addr:full": "S.C. Mukherjee Road", "addr:postcode": "712103", "addr:state": "West Bengal", "amenity": "clinic", "name": "Sur Clinic Nursing Home", "source": "OpenGovernmentData"}}, {"type": "node", "id": 7071466594, "lat": 22.7289719, "lon": 88.3855777, "tags": {"addr:district": "Kolkata", "addr:full": "7/3, Old Calcutta Road, Uttarpara, Rahara", "addr:postcode": "700118", "addr:state": "West Bengal", "amenity": "hospital", "name": "Goodwill Welfare Association Seva Sadan", "source": "OpenGovernmentData"}}, {"type": "node", "id": 7071466623, "lat": 22.7240642, "lon": 88.4743533, "tags": {"addr:district": "North 24 Parganas", "addr:full": "Astha Apartment, Surendranath Road,Nabapally, Barasat", "addr:postcode": "700126", "addr:state": "West Bengal", "amenity": "hospital", "contact:mobile": "9432640837", "name": "Dr.Sarkar Day Eye Care", "source": "OpenGovernmentData"}}, {"type": "node", "id": 7071650032, "lat": 22.8936538, "lon": 88.3982411, "tags": {"addr:district": "Hooghly", "addr:full": "Hospital Road, Chinsurah", "addr:postcode": "712103", "addr:state": "West Bengal", "amenity": "clinic", "name": "Chinsurah Medicare Nursing Home", "source": "OpenGovernmentData"}}, {"type": "node", "id": 7071670247, "lat": 22.9793913, "lon": 88.4362946, "tags": {"addr:district": "Nadia", "addr:full": "B-8/7 (Ca),Kalyani, Nadia, Near Ghoshpara Station", "addr:postcode": "741235", "addr:state": "West Bengal", "amenity": "clinic", "name": "Mediview Diagnostic Services Pvt. Ltd.", "source": "OpenGovernmentData"}}, {"type": "node", "id": 7071670252, "lat": 22.7511012, "lon": 88.334133, "tags": {"addr:district": "Hooghly", "addr:full": "87/A, G. T. Road(W), Serampore", "addr:postcode": "712201", "addr:state": "West Bengal", "amenity": "hospital", "name": "Care Concern Hospital Pvt. Ltd.", "source": "OpenGovernmentData"}}, {"type": "node", "id": 7071670268, "lat": 22.7491506, "lon": 88.3726158, "tags": {"addr:district": "North 24 Parganas", "addr:full": "6/6,BT Road,Talpukur,Barrackpore", "addr:postcode": "700123", "addr:state": "West Bengal", "amenity": "hospital", "contact:phone": "03325014947;25014027", "name": "B.M.R.C Hospital", "source": "OpenGovernmentData"}}, {"type": "node", "id": 7071676997, "lat": 22.9760681, "lon": 88.4369675, "tags": {"addr:district": "Nadia", "addr:full": "B-9/279, Central Park, Kalyani, Behind Axis Bank", "addr:postcode": "741235", "addr:state": "West Bengal", "amenity": "clinic", "contact:phone": "3330257848", "name": "Welcare Clinic", "source": "OpenGovernmentData"}}, {"type": "node", "id": 7071683904, "lat": 22.9705834, "lon": 88.4643911, "tags": {"addr:city": "Kalyani", "addr:postcode": "741235", "amenity": "hospital", "name": "Bose X-ray clinic and hospital", "source": "OpenGovernmentData"}}, {"type": "node", "id": 7071683905, "lat": 22.9704982, "lon": 88.4644937, "tags": {"addr:district": "Nadia", "addr:full": "A-9/14 (S), Kalyani", "addr:postcode": "741235", "addr:state": "West Bengal", "amenity": "hospital", "contact:phone": "3325828855", "name": "Multi Care Hospital", "source": "OpenGovernmentData"}}, {"type": "node", "id": 7071685686, "lat": 22.8877971, "lon": 88.4287176, "tags": {"addr:district": "North 24 Parganas", "addr:full": "Deshbandhu Pally,6 No.Bijaynagar, Naihati", "addr:postcode": "743165", "addr:state": "West Bengal", "amenity": "hospital", "contact:phone": "25027064", "name": "Netraloke Eye Hospital- Naihati", "source": "OpenGovernmentData"}}, {"type": "node", "id": 7071685697, "lat": 22.7202554, "lon": 88.48872, "tags": {"addr:city": "Barasat", "addr:district": "North 24 Parganas", "addr:full": "12, Jessore Road, Champadali,Barsat", "addr:postcode": "700124", "addr:state": "West Bengal", "addr:street": "Jessore Road", "amenity": "clinic", "healthcare:speciality": "surgery;internal;general;urology", "name": "Megacity Nursing Home Pvt Ltd", "source": "OpenGovernmentData"}}, {"type": "node", "id": 7071685706, "lat": 22.7590561, "lon": 88.3693065, "tags": {"addr:district": "North 24 Parganas", "addr:full": "12/1/11, Opposite Allahabad Bank, Sahid Mangal Pandey Sarani, Barrackpore", "addr:postcode": "700120", "addr:state": "West Bengal", "amenity": "hospital", "name": "Neha Eye Centre", "source": "OpenGovernmentData"}}, {"type": "node", "id": 7071685709, "lat": 22.7236754, "lon": 88.4737083, "tags": {"addr:district": "North 24 Parganas", "addr:full": "Surendranath Road, Nabapally,Barasat", "addr:postcode": "700126", "addr:state": "West Bengal", "amenity": "clinic", "contact:phone": "3325422899", "name": "Care And Cure Hospital", "source": "OpenGovernmentData"}}, {"type": "node", "id": 7074272603, "lat": 22.9245745, "lon": 88.3863129, "tags": {"addr:district": "Hooghly", "addr:full": "1, Netaji Park G T Road Bandel", "addr:postcode": "712123", "addr:state": "West Bengal", "amenity": "clinic", "contact:phone": "3326373337", "name": "Kanak Nursing Home", "source": "OpenGovernmentData"}}, {"type": "node", "id": 7074272609, "lat": 22.6833374, "lon": 88.3784706, "tags": {"addr:district": "Kolkata", "addr:full": "Nilgunj Road Agarpara", "addr:postcode": "700109", "addr:state": "West Bengal", "amenity": "hospital", "contact:phone": "3325531093", "name": "Netaji Sebayan Hospital", "source": "OpenGovernmentData"}}, {"type": "node", "id": 7074312489, "lat": 22.7710139, "lon": 88.3291849, "tags": {"addr:district": "Hooghly", "addr:full": "14, G. T. Road", "addr:postcode": "712223", "addr:state": "West Bengal", "amenity": "hospital", "contact:phone": "26329944", "name": "Disha Eye Hospital-Sheoraphuli", "source": "OpenGovernmentData", "website": "dishaeye.org"}}, {"type": "node", "id": 7074312520, "lat": 22.7116342, "lon": 88.4759715, "tags": {"addr:district": "North 24 Parganas", "addr:full": "No.101/5,Jessore Road,(No.1 Rail Gate)", "addr:postcode": "743263", "addr:state": "West Bengal", "amenity": "clinic", "contact:phone": "3216238255", "name": "Nirama Nursing Home", "source": "OpenGovernmentData"}}, {"type": "node", "id": 7074312521, "lat": 22.7090127, "lon": 88.5410915, "tags": {"addr:district": "North 24 Parganas", "addr:full": "Taki Road, Kayra Kadambagachi,Barasat", "addr:postcode": "700124", "addr:state": "West Bengal", "amenity": "hospital", "contact:phone": "25843500", "name": "Aditya Medical Park (A Unit Of Aditya Health Research Foundation Pvt. Ltd.) - Barsat", "source": "OpenGovernmentData"}}, {"type": "node", "id": 7074312580, "lat": 22.6936652, "lon": 88.4634443, "tags": {"addr:district": "North 24 Parganas", "addr:full": "Sodepur Road,Madhyamgram", "addr:postcode": "700129", "addr:state": "West Bengal", "amenity": "hospital", "name": "Netaji Subhash Chandra Bose Specialised Hospital and Research Centre", "source": "OpenGovernmentData"}}, {"type": "node", "id": 7074312614, "lat": 22.7089212, "lon": 88.4747451, "tags": {"addr:district": "North 24 Parganas", "addr:full": "25/3, Jessore Road(S),Dakbanglow, Rathtala, Barasat", "addr:postcode": "700124", "addr:state": "West Bengal", "amenity": "hospital", "name": "Renuka Eye Institute", "source": "OpenGovernmentData", "website": "renukaeyeinstitute.org"}}, {"type": "node", "id": 7074312617, "lat": 22.9019559, "lon": 88.4187037, "tags": {"addr:district": "North 24 Parganas", "addr:full": "460/2,R.B.C. Road, P.O. - Garifa,Naihati", "addr:postcode": "743166", "addr:state": "West Bengal", "amenity": "clinic", "contact:mobile": "9432490036", "name": "Garifa Sanjeevani Nursing Home", "source": "OpenGovernmentData"}}, {"type": "node", "id": 7074312636, "lat": 22.7453167, "lon": 88.3494242, "tags": {"addr:district": "Hooghly", "addr:full": "148 & 151,Grand Trunk Road, Maniktala, Serampore", "addr:postcode": "712201", "addr:state": "West Bengal", "amenity": "clinic", "healthcare": "clinic", "name": "Paramount Heath Care", "source": "OpenGovernmentData"}}, {"type": "node", "id": 7074333287, "lat": 22.8646884, "lon": 88.3632423, "tags": {"addr:district": "Hooghly", "addr:full": "Durga Charan Rakshit Road , Chhabighar More", "addr:postcode": "712136", "addr:state": "West Bengal", "amenity": "hospital", "name": "Meditek Center", "source": "OpenGovernmentData"}}, {"type": "node", "id": 7074333294, "lat": 22.8885247, "lon": 88.4177971, "tags": {"addr:district": "North 24 Parganas", "addr:full": "1 R B C Road Naihati", "addr:postcode": "743165", "addr:state": "West Bengal", "amenity": "hospital", "name": "Naihati Municipality Maternity Hospital", "source": "OpenGovernmentData"}}, {"type": "node", "id": 7199742774, "lat": 22.9462957, "lon": 88.5411998, "tags": {"addr:district": "Nadia", "addr:full": "Kanchrapara Road, Barajaguli", "addr:postcode": "741252", "addr:state": "West Bengal", "addr:subdistrict": "Haringhata", "amenity": "hospital", "name": "Haringhata Rural Hospital", "source": "OpenGovernmentData"}}, {"type": "node", "id": 7199742783, "lat": 22.7217575, "lon": 88.4925174, "tags": {"addr:city": "Barasat", "addr:district": "North 24 Parganas", "addr:full": "Champadali More, Banamalipur, Barasat, Jessore Road", "addr:postcode": "700124", "addr:state": "West Bengal", "addr:street": "Jessore Road", "addr:subdistrict": "Barasat - I", "amenity": "hospital", "description": "District Hospital", "healthcare": "hospital", "healthcare:speciality": "general;surgery;covid19;internal", "name": "Barasat District Hospital", "operator": "Government of West Bengal", "operator:type": "government", "source": "OpenGovernmentData"}}, {"type": "node", "id": 7199742785, "lat": 22.9912287, "lon": 88.3692951, "tags": {"addr:district": "Hooghly", "addr:full": "Mograganj Bazar, Mogra", "addr:postcode": "712148", "addr:state": "West Bengal", "addr:subdistrict": "Chinsurah - Magra", "amenity": "hospital", "name": "Chinsurah Mogra Rural Hospital", "source": "OpenGovernmentData"}}, {"type": "node", "id": 7199742806, "lat": 22.8526394, "lon": 88.3922656, "tags": {"addr:district": "North 24 Parganas", "addr:full": "Polas Jalangi, Bhatpara Municipality", "addr:postcode": "743125", "addr:state": "West Bengal", "addr:subdistrict": "Barrackpur - I", "amenity": "hospital", "name": "Bhatpara State General Hospital", "source": "OpenGovernmentData"}}, {"type": "node", "id": 7199742844, "lat": 22.717275, "lon": 88.369272, "tags": {"addr:district": "North 24 Parganas", "addr:full": "Balaram Dharma, 32, Madhusudhan Mukherjee Road", "addr:postcode": "700116", "addr:state": "West Bengal", "addr:subdistrict": "Barrackpur - I", "amenity": "hospital", "name": "Sree Balaram Seva Mandir State General Hospital", "source": "OpenGovernmentData"}}, {"type": "node", "id": 7199742879, "lat": 22.8924411, "lon": 88.3994271, "tags": {"addr:district": "Hooghly", "addr:full": "Opp. Bsnl Chinsurah Exchange, Sadar Sub Division", "addr:postcode": "712101", "addr:state": "West Bengal", "amenity": "hospital", "description": "District Hospital", "name": "Imambara District Hospital, Hooghly", "source": "OpenGovernmentData"}}, {"type": "node", "id": 7199742887, "lat": 22.6753602, "lon": 88.3733901, "tags": {"addr:district": "North 24 Parganas", "addr:full": "Kamarhati Municipality, 578, B T Road, Kamarhati, Kolkata", "addr:postcode": "700058", "addr:state": "West Bengal", "addr:subdistrict": "Barrackpur - II", "amenity": "hospital", "description": "Medical Colleges Hospital", "name": "College of Medicine & Sagore Dutta Hospital", "source": "OpenGovernmentData"}}, {"type": "node", "id": 7199742907, "lat": 22.8668956, "lon": 88.3689532, "tags": {"addr:district": "Hooghly", "addr:full": "Helapukur Road, Near St.Thomas Primary School, Chandannagar", "addr:postcode": "712136", "addr:state": "West Bengal", "amenity": "hospital", "description": "Sub-District Hospital", "name": "Chandannagar Sub Divisional Hospital", "source": "OpenGovernmentData"}}, {"type": "node", "id": 7199742948, "lat": 22.9742779, "lon": 88.4557638, "tags": {"addr:district": "Nadia", "addr:full": "Kalyani Shilpanjal Station, Sub Block A3, Block A, Kalyani", "addr:postcode": "741235", "addr:state": "West Bengal", "addr:subdistrict": "Haringhata", "amenity": "hospital", "description": "Medical Colleges Hospital", "name": "Jawaharlal Nehru Memorial Hospital, Kalyani", "source": "OpenGovernmentData"}}, {"type": "node", "id": 7199742982, "lat": 22.7548191, "lon": 88.3465241, "tags": {"addr:district": "Hooghly", "addr:full": "TC Goswami Street, Opp. Women Police Station, Serampore", "addr:postcode": "712201", "addr:state": "West Bengal", "amenity": "hospital", "description": "Sub-District Hospital", "name": "Walsh Sub Divisional Hospital", "source": "OpenGovernmentData"}}, {"type": "node", "id": 7199742983, "lat": 22.8949254, "lon": 88.4288618, "tags": {"addr:district": "North 24 Parganas", "addr:full": "Naihati Municiapality, Naihati", "addr:postcode": "743165", "addr:state": "West Bengal", "addr:subdistrict": "Barrackpur - I", "amenity": "hospital", "name": "Naihati State General Hospital", "source": "OpenGovernmentData"}}, {"type": "node", "id": 7199743008, "lat": 22.702536, "lon": 88.3206291, "tags": {"addr:district": "Hooghly", "addr:full": "Near Biswa Laxmi Mandir, Kanaipur, Naity Road", "addr:postcode": "712234", "addr:state": "West Bengal", "addr:subdistrict": "Serampur Uttarpara", "amenity": "hospital", "name": "Kanaipur Rural Hospital", "source": "OpenGovernmentData"}}, {"type": "node", "id": 7199743021, "lat": 22.7312573, "lon": 88.5318255, "tags": {"addr:district": "North 24 Parganas", "addr:full": "Chhotojagulia Pirgacha Road, Near Bdo Office Barasat-I Block, Chhota Jagulia", "addr:postcode": "743294", "addr:state": "West Bengal", "addr:subdistrict": "Barasat - I", "amenity": "hospital", "name": "Chhota Jagulia Hospital", "source": "OpenGovernmentData"}}, {"type": "node", "id": 7594272840, "lat": 22.6920692, "lon": 88.4669422, "tags": {"amenity": "clinic", "healthcare": "clinic", "healthcare:speciality": "general;gynaecology;paediatrics;dentist;dermatology;neurology", "name": "Manorama Pharmacy"}}, {"type": "node", "id": 7668176294, "lat": 22.705331, "lon": 88.472242, "tags": {"addr:district": "North 24 Parganas", "addr:full": "Jessore Road, Hridaypur, Kolkata", "addr:postcode": "700129", "addr:state": "West Bengal", "amenity": "hospital", "name": "Narayana Multi Speciality Hospital", "source": "Local Knowledge"}}, {"type": "node", "id": 7668176297, "lat": 22.6940875, "lon": 88.4668833, "tags": {"addr:district": "North 24 Parganas", "addr:full": "Near Madhyamgram Crossing, Jessore Road, Madhyamgram", "addr:postcode": "700129", "addr:state": "West Bengal", "amenity": "clinic", "name": "Centre For Sight", "source": "Local Knowledge"}}, {"type": "node", "id": 7668176303, "lat": 22.755365, "lon": 88.309809, "tags": {"addr:district": "Hooghly", "addr:full": "Milki Badamtola", "addr:postcode": "712223", "addr:state": "West Bengal", "amenity": "hospital", "name": "Sramajibi Hospital", "source": "Local Knowledge"}}, {"type": "node", "id": 7668176304, "lat": 22.708628, "lon": 88.356469, "tags": {"addr:district": "Hooghly", "addr:full": "Grand Trunk Road, Konnagar", "addr:postcode": "712235", "addr:state": "West Bengal", "amenity": "hospital", "name": "Konnagar Matri Sadan Municipal Hospital", "source": "Local Knowledge"}}, {"type": "node", "id": 7668176306, "lat": 22.6765561, "lon": 88.3735885, "tags": {"addr:district": "North 24 Parganas", "addr:full": "1, Graham Road, Kamarhati", "addr:postcode": "700058", "addr:state": "West Bengal", "amenity": "hospital", "name": "ESI Hospital", "source": "Local Knowledge"}}, {"type": "node", "id": 7668176322, "lat": 22.755491, "lon": 88.346214, "tags": {"addr:district": "Hooghly", "addr:full": "Tulsi Charan Goswami Street, Serampore", "addr:postcode": "712201", "addr:state": "West Bengal", "amenity": "hospital", "name": "T.B. Hospital", "source": "Local Knowledge"}}, {"type": "node", "id": 7668176323, "lat": 22.810439, "lon": 88.352687, "tags": {"addr:district": "Hooghly", "addr:full": "Grand Trunk Road, Gourhati", "addr:postcode": "712124", "addr:state": "West Bengal", "amenity": "hospital", "name": "ESI Hospital", "source": "Local Knowledge"}}, {"type": "node", "id": 7668176324, "lat": 22.957594, "lon": 88.387277, "tags": {"addr:district": "Hooghly", "addr:full": "STKK Road, Assam Link Road, Mithapukur, Chinsurah", "addr:postcode": "712121", "addr:state": "West Bengal", "amenity": "hospital", "name": "Rotary Hooghly Eye Hospital", "source": "Local Knowledge"}}, {"type": "node", "id": 7668176331, "lat": 22.6739939, "lon": 88.4451998, "tags": {"addr:district": "North 24 Parganas", "addr:full": "Jessore Road, Michael Nagar Bus Stand, Kolkata", "addr:postcode": "700133", "addr:state": "West Bengal", "amenity": "hospital", "name": "Bengal Neuro Institute Hospital", "source": "Local Knowledge"}}, {"type": "node", "id": 7668176333, "lat": 22.752594, "lon": 88.331802, "tags": {"addr:district": "Hooghly", "addr:full": "G.T. Road, Mullick Para, Hooghly, Serampore", "addr:postcode": "712201", "addr:state": "West Bengal", "amenity": "hospital", "name": "ESI Hospital", "source": "Local Knowledge"}}, {"type": "node", "id": 7668176336, "lat": 22.681408, "lon": 88.344949, "tags": {"addr:district": "Hooghly", "addr:full": "Station Road, Hindmotor, Uttarpara", "addr:postcode": "712232", "addr:state": "West Bengal", "amenity": "hospital", "name": "Park Lions Hospital", "source": "Local Knowledge"}}, {"type": "way", "id": 144360009, "nodes": [1579221935, 1579222062, 1579222070, 1579221965, 1579222073, 1579222060, 1579222036, 1579222099, 1579222056, 1579222080, 1579221986, 1579222002, 1579221998, 1579221975, 1579222012, 1579222106, 1579221988, 1579222009, 1579222110, 1579222097, 1579221958, 1579222087, 1579222029, 1579221956, 1579221932, 1579222104, 1579221934, 1579222011, 1579221981, 1579221985, 1579222093, 1579222102, 1579221927, 1579222091, 1579222059, 1579222081, 1579221959, 1579221936, 1579222101, 1579222052, 1579222025, 1579221913, 1579221961, 1579222035, 1579222079, 1579222033, 1579222031, 1579221937, 1579222100, 1579222108, 1579222055, 1579221983, 1579222095, 1579222004, 1579222007, 1579221951, 1579222082, 1579221978, 1579221973, 1579221954, 1579222034, 1579222083, 1579222037, 1579222067, 1579222006, 1579221938, 1579221930, 1579222000, 1579222061, 1579222089, 1579222076, 1579222027, 1579221963, 1579222058, 1579221948, 1579221935], "tags": {"amenity": "hospital", "emergency": "no", "name": "National Institute of Biomedical Genomics (Interim Facility)"}}, {"type": "way", "id": 147634811, "nodes": [1608404670, 1608404659, 1608404674, 1608404660, 1608404668, 1608404661, 1608404658, 1608404672, 1608404670], "tags": {"amenity": "hospital"}}, {"type": "way", "id": 310329051, "nodes": [3157495744, 3157495799, 3156614418, 3156614422, 3156614835, 3156614814, 3157495746, 3157495678, 3157495744], "tags": {"amenity": "hospital", "name": "Cantonment General Hospital"}}, {"type": "way", "id": 344480763, "nodes": [3512180260, 3512180261, 3512180262, 3512180263, 7069117898, 7069117899, 3512180260], "tags": {"addr:city": "Kalyani", "addr:district": "Nadia", "addr:full": "A 9/16(S) Kalyani", "addr:postcode": "741235", "addr:state": "West Bengal", "amenity": "hospital", "building": "hospital", "contact:phone": "3325828134", "name": "S N R Carnival Hospital", "source": "OpenGovernmentData"}}, {"type": "way", "id": 344480764, "nodes": [3512180264, 3512180265, 3512180266, 3512180267, 3512180264], "tags": {"addr:city": "Kalyani", "addr:district": "Nadia", "addr:full": "A-9X/3 (Ca), Near Kalyani Main Railway Station, Kalyani", "addr:postcode": "741235", "addr:state": "West Bengal", "amenity": "clinic", "building": "hospital", "contact:phone": "3325820685", "name": "Majumder Millennium Nursing Home And Reliable Diagnostic Centre Pvt Ltd", "source": "OpenGovernmentData"}}, {"type": "way", "id": 345649135, "nodes": [3522898216, 3522898217, 3522898218, 3522898219, 3522898216], "tags": {"addr:city": "Kalyani", "addr:postcode": "741235", "amenity": "clinic", "building": "yes", "name": "Dermatological Clinic"}}, {"type": "way", "id": 345727372, "nodes": [3523734499, 3523734500, 3523734501, 3523734502, 3523734499], "tags": {"addr:city": "Kalyani", "addr:postcode": "741235", "amenity": "clinic", "building": "yes", "name": "Mediview"}}, {"type": "way", "id": 357684444, "nodes": [3628604373, 3664457341, 3664457335, 3664457334, 3664457340, 3664457336, 3664457329, 3664457328, 3664457333, 3628604371, 3628604359, 3628604357, 3664446706, 3664446705, 3628604336, 3664446691, 3628604319, 3664446690, 3628604342, 3628604341, 3628604351, 3628604354, 3628604373]}, {"type": "way", "id": 362064672, "nodes": [3664446713, 3664446712, 3664446709, 3664446704, 3664446699, 3664446696, 3664446695, 3664446698, 3664446713]}, {"type": "way", "id": 367827482, "nodes": [3717045291, 3717045297, 3717045292, 3717045273, 3717045291], "tags": {"amenity": "hospital", "name": "Chandannagar Hospital"}}, {"type": "way", "id": 427347999, "nodes": [4265807397, 4265807398, 4265807399, 4265807400, 4265807397], "tags": {"addr:city": "Kalyani", "addr:district": "Nadia", "addr:full": "A-9/10S,Kalyani Nadia, Near SBI, Igc Branch,Kalyani", "addr:postcode": "741235", "addr:state": "West Bengal", "amenity": "clinic", "contact:phone": "3325823022", "name": "The Happy Soni Clinic - Rsby", "source": "OpenGovernmentData"}}, {"type": "way", "id": 427348000, "nodes": [4265807402, 4265807403, 4265807404, 4265807405, 4265807402], "tags": {"addr:city": "Kalyani", "addr:postcode": "741235", "amenity": "clinic", "building": "yes", "description": "All kinds of tests, doctors chambers and medicine shop", "name": "Mitali Polyclinic"}}, {"type": "way", "id": 427348001, "nodes": [4265807406, 4265807407, 4265807408, 4265807409, 4265807406], "tags": {"addr:city": "Kalyani", "addr:postcode": "741235", "amenity": "clinic", "building": "yes", "name": "Life Line"}}, {"type": "relation", "id": 5388865, "members": [{"type": "way", "ref": 357684444, "role": "outer"}, {"type": "way", "ref": 362064672, "role": "inner"}], "tags": {"addr:district": "North 24 Parganas", "addr:full": "Near Madhyamgram Chowmatha, Madhyamgram Badu Road", "addr:postcode": "700129", "addr:state": "West Bengal", "addr:subdistrict": "Barasat - II", "amenity": "hospital", "healthcare": "hospital", "name": "Madhyamgram Rural Hospital", "source": "OpenGovernmentData", "type": "multipolygon"}}]}