{"version": 0.6, "generator": "Overpass API 0.7.56.9 76e5016d", "osm3s": {"timestamp_osm_base": "2021-07-30T17:05:13Z", "copyright": "The data included in this document is from www.openstreetmap.org. The data is made available under ODbL."}, "elements": [{"type": "node", "id": 4039519376, "lat": 22.7590741, "lon": 88.2200935}, {"type": "node", "id": 4039519377, "lat": 22.7589405, "lon": 88.2201042}, {"type": "node", "id": 4039519378, "lat": 22.7586741, "lon": 88.2201099}, {"type": "node", "id": 4039519379, "lat": 22.7587622, "lon": 88.2217258}, {"type": "node", "id": 4039519380, "lat": 22.759022, "lon": 88.2218107}, {"type": "node", "id": 4039519381, "lat": 22.7591384, "lon": 88.2208713}, {"type": "node", "id": 4049898691, "lat": 22.7591664, "lon": 88.2218015}, {"type": "node", "id": 4054102178, "lat": 22.7586808, "lon": 88.2203823}, {"type": "node", "id": 5520407231, "lat": 22.7131422, "lon": 88.1055727, "tags": {"addr:city": "Jangipara", "addr:district": "Hooghly", "addr:full": "Near Baganda High School, Baganda, Mundalika", "addr:postcode": "712404", "addr:state": "West Bengal", "addr:subdistrict": "Jangipara", "amenity": "hospital", "description": "Primary Health Centre", "healthcare": "centre", "name": "PHC, Mundalika", "operator": "www.wbhealth.gov.in", "source": "OpenGovernmentData", "wikidata": "Q61441376"}}, {"type": "node", "id": 7048800457, "lat": 22.7703511, "lon": 88.1654321, "tags": {"addr:district": "Hooghly", "addr:full": "Vill Sripatipur,Srirampur,P.O. Sheakhala", "addr:postcode": "712706", "addr:state": "West Bengal", "amenity": "clinic", "name": "Pankajini Nursing Home", "source": "OpenGovernmentData"}}, {"type": "node", "id": 7053757999, "lat": 22.6791882, "lon": 88.3006167, "tags": {"addr:district": "Hooghly", "addr:full": "T. N. Mukherjee Road, Monoharpur,Dankuni", "addr:postcode": "712103", "addr:state": "West Bengal", "amenity": "clinic", "name": "Seva Nursing Home, Hooghly", "source": "OpenGovernmentData"}}, {"type": "node", "id": 7065866573, "lat": 22.7633089, "lon": 88.1694069, "tags": {"addr:district": "Hooghly", "addr:full": "Sheakhala", "addr:postcode": "712706", "addr:state": "West Bengal", "amenity": "hospital", "name": "Jyotirmoyee Arogya Bhawan", "source": "OpenGovernmentData"}}, {"type": "node", "id": 7065868612, "lat": 22.8204316, "lon": 88.2089442, "tags": {"addr:district": "Hooghly", "addr:full": "Vill & P.O. Kamarkundu, Singus", "addr:postcode": "712409", "addr:state": "West Bengal", "amenity": "hospital", "name": "Jeevandeep Seva Sadan", "source": "OpenGovernmentData"}}, {"type": "node", "id": 7068614384, "lat": 22.6816921, "lon": 88.2812545, "tags": {"addr:district": "Hooghly", "addr:full": "Lichubagan, P.O.- Garalgacha, P.S- Dankuni,Near Dankuni Railway Station", "addr:postcode": "712708", "addr:state": "West Bengal", "amenity": "hospital", "name": "Arunodaya Health Care Pvt Ltd", "source": "OpenGovernmentData"}}, {"type": "node", "id": 7069095516, "lat": 22.9173733, "lon": 88.1185236, "tags": {"addr:district": "Hooghly", "addr:full": "Vill.&P.O. : Mandra", "addr:postcode": "712301", "addr:state": "West Bengal", "amenity": "hospital", "name": "Vivekananda Seva Sadan", "source": "OpenGovernmentData"}}, {"type": "node", "id": 7071466600, "lat": 22.7660556, "lon": 88.2583626, "tags": {"addr:district": "Hooghly", "addr:full": "Viii Borai (New Tematha), P.O Borai, P.S Singur", "addr:postcode": "712306", "addr:state": "West Bengal", "amenity": "hospital", "name": "New Matri Seva Sadan", "source": "OpenGovernmentData"}}, {"type": "node", "id": 7074312609, "lat": 22.8189557, "lon": 88.2192003, "tags": {"addr:district": "Hooghly", "addr:full": "S.N.Mallick Road,Vill- Kismat Nutan Bazar (Near Water Tank),P.O. - Singur", "addr:postcode": "712409", "addr:state": "West Bengal", "amenity": "clinic", "name": "Swasthya Nivas Nursing Home", "source": "OpenGovernmentData"}}, {"type": "node", "id": 7199742762, "lat": 22.9098575, "lon": 88.1598621, "tags": {"addr:district": "Hooghly", "addr:full": "Pannagachi Road, Near Railway Station, Porabazar", "addr:postcode": "712305", "addr:state": "West Bengal", "addr:subdistrict": "Dhaniakhali", "amenity": "hospital", "name": "Porabazar Hospital", "source": "OpenGovernmentData"}}, {"type": "node", "id": 7199742776, "lat": 22.6797378, "lon": 88.1085312, "tags": {"addr:district": "Howrah", "addr:full": "Jagatballavpur Basic Training School, Goalpota", "addr:postcode": "711408", "addr:state": "West Bengal", "addr:subdistrict": "Jagatballavpur", "amenity": "hospital", "name": "Jagatballavpur Rural Hospital", "source": "OpenGovernmentData"}}, {"type": "node", "id": 7199742810, "lat": 22.7246358, "lon": 88.2472706, "tags": {"addr:district": "Hooghly", "addr:full": "Baro Mandir, Baksha", "addr:postcode": "712304", "addr:state": "West Bengal", "addr:subdistrict": "Chanditala - II", "amenity": "hospital", "name": "Baksha Hospital", "source": "OpenGovernmentData"}}, {"type": "node", "id": 7199742859, "lat": 22.733053, "lon": 88.2092044, "tags": {"addr:district": "Hooghly", "addr:full": "Nolepara Rasta, Near Post Office, Jangalpara", "addr:postcode": "712701", "addr:state": "West Bengal", "addr:subdistrict": "Chanditala - I", "amenity": "hospital", "name": "Jangalpara Hospital", "source": "OpenGovernmentData"}}, {"type": "node", "id": 7199742863, "lat": 22.7296069, "lon": 88.1609911, "tags": {"addr:district": "Hooghly", "addr:full": "Aniya Primary School, Aniya, Chanditala-1, 26 C Road", "addr:postcode": "712706", "addr:state": "West Bengal", "addr:subdistrict": "Chanditala - I", "amenity": "hospital", "name": "Akuni Ichapasar Rural Hospital", "source": "OpenGovernmentData"}}, {"type": "node", "id": 7199742878, "lat": 22.7486783, "lon": 88.1289435, "tags": {"addr:district": "Hooghly", "addr:full": "Furfura Road, Near Furfura Post Office, Furfura Sharif", "addr:postcode": "712706", "addr:state": "West Bengal", "addr:subdistrict": "Jangipara", "amenity": "hospital", "name": "Furfura Hospital", "source": "OpenGovernmentData"}}, {"type": "node", "id": 7199742899, "lat": 22.829529, "lon": 88.115191, "tags": {"addr:district": "Hooghly", "addr:full": "Near Gurudayal School, Khamarchandi, Haripal", "addr:postcode": "712405", "addr:state": "West Bengal", "addr:subdistrict": "Haripal", "amenity": "hospital", "name": "Haripal Rural Hospital", "source": "OpenGovernmentData"}}, {"type": "node", "id": 7199742900, "lat": 22.96542, "lon": 88.091637, "tags": {"addr:district": "Hooghly", "addr:full": "Behind Police Station, Dhaniakhali, Cenimatala To Hospital Road", "addr:postcode": "712302", "addr:state": "West Bengal", "addr:subdistrict": "Dhaniakhali", "amenity": "hospital", "name": "Dhaniakhali Rural Hospital", "source": "OpenGovernmentData"}}, {"type": "node", "id": 7199742935, "lat": 22.6918608, "lon": 88.2639963, "tags": {"addr:district": "Hooghly", "addr:full": "Chanditala Police Ststion, Kalachara,Chanditala, Ahallaby Road", "addr:postcode": "712702", "addr:state": "West Bengal", "addr:subdistrict": "Chanditala - II", "amenity": "hospital", "name": "Chanditala Rural Hospital", "source": "OpenGovernmentData"}}, {"type": "node", "id": 7199742994, "lat": 22.9322435, "lon": 88.1442705, "tags": {"addr:district": "Hooghly", "addr:full": "Belmuri Railway Station, Belmuri", "addr:postcode": "712301", "addr:state": "West Bengal", "addr:subdistrict": "Dhaniakhali", "amenity": "hospital", "name": "Bagnan Hospital", "source": "OpenGovernmentData"}}, {"type": "node", "id": 7199743009, "lat": 22.8128595, "lon": 88.23337, "tags": {"addr:district": "Hooghly", "addr:full": "10 No Rail Gate, Singur", "addr:postcode": "712409", "addr:state": "West Bengal", "addr:subdistrict": "Singur", "amenity": "hospital", "name": "Singur Rural Hospital", "source": "OpenGovernmentData"}}, {"type": "node", "id": 7199743026, "lat": 23.0078143, "lon": 88.1118611, "tags": {"addr:district": "Hooghly", "addr:full": "Near Post Office, Palasi", "addr:postcode": "712303", "addr:state": "West Bengal", "addr:subdistrict": "Dhaniakhali", "amenity": "hospital", "name": "Palashi Hospital", "source": "OpenGovernmentData"}}, {"type": "node", "id": 7668176289, "lat": 22.690939, "lon": 88.291484, "tags": {"addr:district": "Hooghly", "addr:full": "Near Toll Plaza, Dankuni", "addr:postcode": "712310", "addr:state": "West Bengal", "amenity": "hospital", "name": "Phoenix Hospital", "source": "Local Knowledge"}}, {"type": "way", "id": 401532582, "nodes": [4039519376, 4039519377, 4039519378, 4054102178, 4039519379, 4039519380, 4049898691, 4039519381, 4039519376], "tags": {"addr:city": "Gangadharpur", "addr:district": "Hooghly", "addr:full": "Gangadharpur-Jangalpara Road, Near Gram Panchayat, Gangadharpur", "addr:postcode": "712306", "addr:state": "West Bengal", "addr:street": "Gangadharpur-Jangalpara road", "addr:subdistrict": "Chanditala - I", "amenity": "hospital", "description": "Primary Health Centre", "healthcare": "centre", "name": "PHC, Gangadharpur", "source": "OpenGovernmentData", "wikidata": "Q61441963"}}]}