{"version": 0.6, "generator": "Overpass API 0.7.56.9 76e5016d", "osm3s": {"timestamp_osm_base": "2021-08-26T02:41:57Z", "copyright": "The data included in this document is from www.openstreetmap.org. The data is made available under ODbL."}, "elements": [{"type": "node", "id": 7048093135, "lat": 22.468412, "lon": 88.0947118, "tags": {"addr:district": "Howrah", "addr:full": "257 A, Bazarpara, Uluberia", "addr:postcode": "711316", "addr:state": "West Bengal", "amenity": "clinic", "contact:phone": "26610473", "name": "Care and Cure Nursing Home", "source": "OpenGovernmentData"}}, {"type": "node", "id": 7048149624, "lat": 22.4856094, "lon": 88.2868892, "tags": {"addr:district": "Kolkata", "addr:full": "# 633, Biren Roy Road (West)", "addr:postcode": "700061", "addr:state": "West Bengal", "amenity": "clinic", "name": "Sakuntala Nursing Home", "source": "OpenGovernmentData"}}, {"type": "node", "id": 7048290222, "lat": 22.5855217, "lon": 88.2138714, "tags": {"addr:district": "Howrah", "addr:full": "Nh - 6, Alampur More, Po New Kosopah", "addr:postcode": "711302", "addr:state": "West Bengal", "amenity": "clinic", "contact:phone": "03326478988;26698989", "name": "Green View Clinic Pvt Ltd", "source": "OpenGovernmentData"}}, {"type": "node", "id": 7048300901, "lat": 22.4863466, "lon": 88.1890865, "tags": {"addr:district": "South 24 Parganas", "addr:full": "71, Mahatma Gandhi Road,Budge", "addr:postcode": "700137", "addr:state": "West Bengal", "amenity": "hospital", "name": "Gulabi Raj Shyamlal Memorial Rotary Eye Hospital", "source": "OpenGovernmentData"}}, {"type": "node", "id": 7048491259, "lat": 22.6369156, "lon": 88.2212435, "tags": {"addr:district": "Howrah", "addr:full": "Domjur Jagadishpur Road,Domjur", "addr:postcode": "711405", "addr:state": "West Bengal", "amenity": "clinic", "name": "Hazra Nursing Home", "source": "OpenGovernmentData"}}, {"type": "node", "id": 7050784008, "lat": 22.5440241, "lon": 88.2696868, "tags": {"addr:district": "Kolkata", "addr:full": "V-122/A/2,S.A.Farooquie Road,Opp: Bartala Post Office", "addr:postcode": "700018", "addr:state": "West Bengal", "amenity": "hospital", "contact:phone": "30216666", "name": "Unipon Hospital and Medical Sciences Pvt.Ltd -Kolkata", "source": "OpenGovernmentData"}}, {"type": "node", "id": 7051226571, "lat": 22.6628869, "lon": 88.139196, "tags": {"addr:district": "Howrah", "addr:full": "Bargachis, Jagat Ballabhpur Thana, Opp Bargachia Petrol Pump", "addr:postcode": "711404", "addr:state": "West Bengal", "amenity": "clinic", "contact:phone": "3214256044", "name": "Bargachia Nursing Home", "source": "OpenGovernmentData"}}, {"type": "node", "id": 7051244689, "lat": 22.4398748, "lon": 88.293448, "tags": {"addr:district": "South 24 Parganas", "addr:full": "Diamond Harbour Road , Pailan", "addr:postcode": "700104", "addr:state": "West Bengal", "amenity": "hospital", "name": "Bharat Sevashram Sangha Hospital", "source": "OpenGovernmentData"}}, {"type": "node", "id": 7053491351, "lat": 22.4806192, "lon": 88.1149891, "tags": {"addr:district": "Howrah", "addr:full": "Off Great Eastern Highway,Post Sijberia, Fuleswar, Uluberia", "addr:postcode": "711316", "addr:state": "West Bengal", "amenity": "hospital", "name": "Sanjiban Hospital", "source": "OpenGovernmentData", "website": "https://sanjibanhospital.org/"}}, {"type": "node", "id": 7053714207, "lat": 22.4370275, "lon": 88.2779373, "tags": {"addr:district": "South 24 Parganas", "addr:full": "Bakrahat Road,Thakurpukur,Vishnupur", "addr:postcode": "700104", "addr:state": "West Bengal", "amenity": "hospital", "contact:phone": "3324980366", "name": "Searight Hospital and Welfare Society", "source": "OpenGovernmentData"}}, {"type": "node", "id": 7053742804, "lat": 22.5857817, "lon": 88.2260755, "tags": {"addr:district": "Howrah", "addr:full": "Gar Mirjapur,(Andul Road),Po- Mashila", "addr:postcode": "711302", "addr:state": "West Bengal", "amenity": "clinic", "name": "Sebayan Nursing Services Pvt. Ltd.", "source": "OpenGovernmentData"}}, {"type": "node", "id": 7062173629, "lat": 22.5672178, "lon": 88.2719104, "tags": {"addr:district": "Howrah", "addr:full": "Andul Road,Podra, Howarah-9,Near West Bank Hospital", "addr:postcode": "711109", "addr:state": "West Bengal", "amenity": "clinic", "contact:phone": "3326445329", "name": "Indus Nursing Home Pvt. Ltd.", "source": "OpenGovernmentData"}}, {"type": "node", "id": 7062368398, "lat": 22.4678202, "lon": 88.092767, "tags": {"addr:district": "Howrah", "addr:full": "Bazarpara, Uluberia", "addr:postcode": "711316", "addr:state": "West Bengal", "amenity": "clinic", "name": "Ideal Clinic and Hospital (Pvt) Ltd", "source": "OpenGovernmentData", "website": "idealhospital.com"}}, {"type": "node", "id": 7062411421, "lat": 22.4822995, "lon": 88.0933182, "tags": {"addr:district": "Howrah", "addr:full": "Charushila Manmathanath Dey Memorial Unit,Jadurberia,Uluberia", "addr:postcode": "711316", "addr:state": "West Bengal", "amenity": "hospital", "name": "Howrah Lions Hospital-Jaduberia", "source": "OpenGovernmentData"}}, {"type": "node", "id": 7062470834, "lat": 22.4691289, "lon": 88.0938634, "tags": {"addr:district": "Howrah", "addr:full": "Mohini Complex, Near Bazarpara, Uluberia Station Road, Banitala", "addr:postcode": "711316", "addr:state": "West Bengal", "amenity": "hospital", "name": "Sister Nibedita Hospital", "source": "OpenGovernmentData"}}, {"type": "node", "id": 7065473117, "lat": 22.6634567, "lon": 88.1352472, "tags": {"addr:district": "Howrah", "addr:full": "Sona Bazaar, Vill Sibrampur", "addr:postcode": "711404", "addr:state": "West Bengal", "amenity": "clinic", "contact:phone": "3214258230", "name": "Jibak Nursing Home", "source": "OpenGovernmentData"}}, {"type": "node", "id": 7065866513, "lat": 22.5523295, "lon": 88.2705381, "tags": {"addr:district": "Kolkata", "addr:full": "Dr. A.K.Road,Metiabruz", "addr:postcode": "700018", "addr:state": "West Bengal", "amenity": "clinic", "contact:phone": "24693185", "name": "A Hamid's Clinic, Maternity and Nursing Home", "source": "OpenGovernmentData"}}, {"type": "node", "id": 7065866518, "lat": 22.5768741, "lon": 88.301756, "tags": {"addr:district": "Howrah", "addr:full": "1/10, Bholanath Nandy Lane", "addr:postcode": "711104", "addr:state": "West Bengal", "amenity": "hospital", "contact:phone": "26778050", "name": "Chokher Aloy", "source": "OpenGovernmentData"}}, {"type": "node", "id": 7065866583, "lat": 22.578847, "lon": 88.2555755, "tags": {"addr:district": "Howrah", "addr:full": "Andulrailway Siding.Jhorehat", "addr:postcode": "711302", "addr:state": "West Bengal", "amenity": "hospital", "healthcare": "hospital", "name": "Disha Eye Care", "source": "OpenGovernmentData"}}, {"type": "node", "id": 7065868655, "lat": 22.4573942, "lon": 88.3045549, "tags": {"addr:district": "Kolkata", "addr:full": "8A, Diamond Harbour Road Thakurpukur", "addr:postcode": "700063", "addr:state": "West Bengal", "amenity": "hospital", "name": "Bangur Medicare Research Institute", "source": "OpenGovernmentData"}}, {"type": "node", "id": 7068614355, "lat": 22.4873919, "lon": 88.1871003, "tags": {"addr:district": "South 24 Parganas", "addr:full": "Mahatma Gandhi Road,Chowrasta,Budge", "addr:postcode": "700137", "addr:state": "West Bengal", "amenity": "clinic", "name": "Arti Nursing Home", "source": "OpenGovernmentData"}}, {"type": "node", "id": 7068798167, "lat": 22.5673073, "lon": 88.2704237, "tags": {"addr:district": "Howrah", "addr:full": "Andul Road", "addr:postcode": "711109", "addr:state": "West Bengal", "amenity": "hospital", "emergency": "yes", "name": "N H Narayana Multispeciality Hospital", "source": "OpenGovernmentData"}}, {"type": "node", "id": 7069095556, "lat": 22.484426, "lon": 88.0934443, "tags": {"addr:district": "Howrah", "addr:full": "Near Esi Hospital,Uluberia", "addr:postcode": "711316", "addr:state": "West Bengal", "amenity": "clinic", "name": "Blue- View Nursing Home", "source": "OpenGovernmentData"}}, {"type": "node", "id": 7069112387, "lat": 22.6118184, "lon": 88.2752296, "tags": {"addr:district": "Howrah", "addr:full": "Kabarpara, Po- Bankra", "addr:postcode": "711403", "addr:state": "West Bengal", "amenity": "clinic", "contact:mobile": "9830286912", "contact:phone": "3326534391", "name": "Bankra Central Nursing Home", "source": "OpenGovernmentData"}}, {"type": "node", "id": 7069112463, "lat": 22.5494919, "lon": 88.2873284, "tags": {"addr:district": "Kolkata", "addr:full": "B -79 , Iron Gate Road", "addr:postcode": "700024", "addr:state": "West Bengal", "addr:street": "Iron Gate Road", "amenity": "clinic", "name": "Garden Reach Nursing Home", "source": "OpenGovernmentData"}}, {"type": "node", "id": 7069117921, "lat": 22.4578645, "lon": 88.3013537, "tags": {"addr:district": "South 24 Parganas", "addr:full": "Joka,Bakra Hat Road,Near Check Post", "addr:postcode": "700104", "addr:state": "West Bengal", "amenity": "clinic", "name": "Gay-Land Nursing Home", "source": "OpenGovernmentData"}}, {"type": "node", "id": 7071390546, "lat": 22.5858477, "lon": 88.3035014, "tags": {"addr:district": "Howrah", "addr:full": "43/5, Nani Villa, Ramcharan Seth Road, Santragachi More, Ramrajatala, Baruipara", "addr:postcode": "711104", "addr:state": "West Bengal", "amenity": "hospital", "name": "S.C. Bagchi Arogya Sadan Pvt.Ltd.", "source": "OpenGovernmentData"}}, {"type": "node", "id": 7071466619, "lat": 22.5847217, "lon": 88.2322526, "tags": {"addr:district": "Howrah", "addr:full": "Andul Road,Chowdhuri Para", "addr:postcode": "711302", "addr:state": "West Bengal", "amenity": "clinic", "contact:phone": "26694373", "name": "Blue Bell Nursing Home", "source": "OpenGovernmentData"}}, {"type": "node", "id": 7071466620, "lat": 22.4556049, "lon": 88.3046014, "tags": {"addr:district": "South 24 Parganas", "addr:full": "Diamond Harbour Road,3A Bus Stand, P.O-Joka", "addr:postcode": "700104", "addr:state": "West Bengal", "amenity": "hospital", "name": "Kasturi Medical Centre Pvt Ltd", "source": "OpenGovernmentData", "website": "https://www.kasturimedicalcentre.com/"}}, {"type": "node", "id": 7071466629, "lat": 22.6127839, "lon": 88.2962601, "tags": {"addr:district": "Howrah", "addr:full": "Balitikuri,Near Japanigate, E.S.I Hospital", "addr:postcode": "711113", "addr:state": "West Bengal", "amenity": "clinic", "contact:phone": "3326534350", "name": "Benuban Health Care", "source": "OpenGovernmentData"}}, {"type": "node", "id": 7071650069, "lat": 22.4849865, "lon": 88.28518, "tags": {"addr:district": "Kolkata", "addr:full": "Kolkata", "addr:postcode": "700001", "addr:state": "West Bengal", "amenity": "hospital", "name": "Netaji Eye Hospital", "source": "OpenGovernmentData"}}, {"type": "node", "id": 7071670281, "lat": 22.5939709, "lon": 88.2800968, "tags": {"addr:district": "Kolkata", "addr:full": "Government of India Press Colony,Santragachi, Howrah", "addr:state": "West Bengal", "amenity": "clinic", "contact:phone": "3326571526", "health_facility:type": "dispensary", "healthcare": "centre", "name": "CGHS Dispensary, Santragachi", "operator:type": "government", "source": "OpenGovernmentData", "website": "http://nb.bsf.gov.in/CGHS%20DIspenseries.pdf"}}, {"type": "node", "id": 7071683907, "lat": 22.5113168, "lon": 88.3049056, "tags": {"addr:district": "Kolkata", "addr:full": "P-516/1, Banamali Naskar Road, Parnasree Palli, Behala", "addr:postcode": "700060", "addr:state": "West Bengal", "amenity": "hospital", "name": "Vivekananda Hospital and Research Institute", "source": "OpenGovernmentData", "website": "http://www.vivekanandahospitalbehala.com/"}}, {"type": "node", "id": 7071683913, "lat": 22.5488373, "lon": 88.2812016, "tags": {"addr:district": "Kolkata", "addr:full": "Q-39, S.A. Farooque Road, Metia Buruz, Garden Reach", "addr:postcode": "700024", "addr:state": "West Bengal", "amenity": "clinic", "name": "Ayub Ansari Nursing Home", "source": "OpenGovernmentData"}}, {"type": "node", "id": 7071685698, "lat": 22.5843828, "lon": 88.3033307, "tags": {"addr:district": "Howrah", "addr:full": "1/6, Chowdhury Para Lane,Ichapur", "addr:postcode": "711104", "addr:state": "West Bengal", "amenity": "clinic", "name": "Palview Nursing Home", "source": "OpenGovernmentData"}}, {"type": "node", "id": 7074312600, "lat": 22.6356834, "lon": 88.2206648, "tags": {"addr:district": "Howrah", "addr:full": "Po - Domjur,Domjur Jagadishpur Road", "addr:postcode": "711405", "addr:state": "West Bengal", "amenity": "clinic", "name": "Domjur Nursing Home", "source": "OpenGovernmentData"}}, {"type": "node", "id": 7199742768, "lat": 22.6329538, "lon": 88.2245161, "tags": {"addr:district": "Howrah", "addr:full": "Domjur", "addr:postcode": "711405", "addr:state": "West Bengal", "addr:subdistrict": "Domjur", "amenity": "hospital", "name": "Domjur Rural Hospital", "source": "OpenGovernmentData"}}, {"type": "node", "id": 7199742791, "lat": 22.5981589, "lon": 88.2740081, "tags": {"addr:district": "Howrah", "addr:full": "Near Bankra Police Phari, Bankra", "addr:postcode": "711403", "addr:state": "West Bengal", "addr:subdistrict": "Domjur", "amenity": "hospital", "name": "Bankra Hospital", "source": "OpenGovernmentData"}}, {"type": "node", "id": 7199742804, "lat": 22.6193143, "lon": 88.300364, "tags": {"addr:district": "Howrah", "addr:full": "Bally Jagacha Bdo Office, Hmc 50 No Ward, Benaras Road", "addr:postcode": "711114", "addr:state": "West Bengal", "addr:subdistrict": "Bally Jagachha", "amenity": "hospital", "name": "Kona Jagadishpur Rural Hospital", "source": "OpenGovernmentData"}}, {"type": "node", "id": 7199853166, "lat": 22.5101693, "lon": 88.1836138, "tags": {"addr:district": "Howrah", "addr:full": "Nalpur Road, Near Primary School, Chakmadhu", "addr:postcode": "711310", "addr:state": "West Bengal", "amenity": "hospital", "description": "Sub-District Hospital", "name": "Fort-Gloster State General Hospital", "source": "OpenGovernmentData"}}, {"type": "node", "id": 7199853167, "lat": 22.5531551, "lon": 88.1512488, "tags": {"addr:district": "Howrah", "addr:full": "Jorabottala Bus Stand, Kulai, Satgharia, Paniara", "addr:postcode": "711322", "addr:state": "West Bengal", "addr:subdistrict": "Panchla", "amenity": "hospital", "name": "Kulai Rural Hospital", "source": "OpenGovernmentData"}}, {"type": "node", "id": 7199853201, "lat": 22.3169806, "lon": 88.2683289, "tags": {"addr:district": "South 24 Parganas", "addr:full": "Shirakole-Sherpur Road, Near YN High School, Shirakole", "addr:postcode": "743513", "addr:state": "West Bengal", "addr:subdistrict": "MOGRAHAT - I", "amenity": "hospital", "name": "Shirakole Hospital", "source": "OpenGovernmentData"}}, {"type": "node", "id": 7199853205, "lat": 22.386825, "lon": 88.244729, "tags": {"addr:district": "South 24 Parganas", "addr:full": "Nibaran Dutta Road, Near Gram Panchayat, Moukhali", "addr:postcode": "743503", "addr:state": "West Bengal", "addr:subdistrict": "Bishnupur - II", "amenity": "hospital", "name": "Moukhali Gramin Hospital", "source": "OpenGovernmentData"}}, {"type": "node", "id": 7199853237, "lat": 22.566693, "lon": 88.124477, "tags": {"addr:district": "Howrah", "addr:full": "Amta-Ranihati Road, Near Petrol Pump, Shuvararah", "addr:postcode": "711302", "addr:state": "West Bengal", "addr:subdistrict": "Panchla", "amenity": "hospital", "description": "Sub-District Hospital", "name": "Gabberia State General Hospital", "source": "OpenGovernmentData"}}, {"type": "node", "id": 7199853297, "lat": 22.561371, "lon": 88.220802, "tags": {"addr:district": "Howrah", "addr:full": "77 Bus Stand, Sankrail", "addr:postcode": "711309", "addr:state": "West Bengal", "addr:subdistrict": "Sankrail", "amenity": "hospital", "name": "Hazi S. T. Mullick Rural Hospital", "source": "OpenGovernmentData"}}, {"type": "node", "id": 7199853326, "lat": 22.5602924, "lon": 88.3039377, "tags": {"addr:district": "Howrah", "addr:full": "Laxmi Narayana Tala Road, Near IIEST, Shibpur", "addr:postcode": "711103", "addr:state": "West Bengal", "amenity": "hospital", "description": "Sub-District Hospital", "name": "South Howrah State General Hospital", "source": "OpenGovernmentData"}}, {"type": "node", "id": 7199853366, "lat": 22.3658439, "lon": 88.2719809, "tags": {"addr:district": "South 24 Parganas", "addr:full": "Near Bazar Kolkata Market, Amtala", "addr:postcode": "743503", "addr:state": "West Bengal", "addr:subdistrict": "Bishnupur - II", "amenity": "hospital", "description": "Rural Hospital", "name": "Amtala Rural Hospital", "source": "OpenGovernmentData"}}, {"type": "node", "id": 7199853395, "lat": 22.4631742, "lon": 88.1846757, "tags": {"addr:district": "South 24 Parganas", "addr:full": "Khariberia Fp School Buita, Byanjanheria, Byanjanheria", "addr:postcode": "700137", "addr:state": "West Bengal", "addr:subdistrict": "Budge Budge - I", "amenity": "hospital", "name": "Byanjanheria Charial Rural Hospital", "source": "OpenGovernmentData"}}, {"type": "node", "id": 7199853408, "lat": 22.589507, "lon": 88.2404221, "tags": {"addr:district": "Howrah", "addr:full": "Ambagan Club, Mohiary", "addr:postcode": "711302", "addr:state": "West Bengal", "addr:subdistrict": "Domjur", "amenity": "hospital", "name": "Mahiyari Lakshmikamal Hospital", "source": "OpenGovernmentData"}}, {"type": "node", "id": 7199853416, "lat": 22.470128, "lon": 88.094529, "tags": {"addr:district": "Howrah", "addr:full": "Station Road, Near Railway Station, Uluberia", "addr:postcode": "711316", "addr:state": "West Bengal", "amenity": "hospital", "description": "Sub-District Hospital", "name": "Uluberia Sub Divisional Hospital", "source": "OpenGovernmentData"}}, {"type": "node", "id": 7592786738, "lat": 22.5672546, "lon": 88.2718829, "tags": {"amenity": "hospital", "emergency": "yes", "name": "Indus Nursing Home"}}, {"type": "node", "id": 7640497232, "lat": 22.5671332, "lon": 88.2730325, "tags": {"amenity": "hospital", "emergency": "yes", "name": "Smile Dental Care"}}, {"type": "node", "id": 7668176278, "lat": 22.468093, "lon": 88.091677, "tags": {"addr:district": "Howrah", "addr:full": "Bazarpara, Uluberia", "addr:postcode": "711315", "addr:state": "West Bengal", "amenity": "hospital", "name": "Sebabbrata Hospital", "source": "Local Knowledge"}}, {"type": "node", "id": 7668176311, "lat": 22.4652166, "lon": 88.1678893, "tags": {"addr:district": "South 24 Parganas", "addr:full": "Nishchintapur, Budge Budge, Maheshtala", "addr:postcode": "700137", "addr:state": "West Bengal", "amenity": "hospital", "name": "ESI Hospital", "source": "Local Knowledge"}}, {"type": "node", "id": 7668176318, "lat": 22.3890571, "lon": 88.1981452, "tags": {"addr:district": "South 24 Parganas", "addr:full": "Chak Manik, Raypur", "addr:postcode": "743377", "addr:state": "West Bengal", "amenity": "hospital", "name": "Muchisa Hospital", "source": "Local Knowledge"}}, {"type": "node", "id": 7668176353, "lat": 22.493942, "lon": 88.21937, "tags": {"addr:district": "South 24 Parganas", "addr:full": "Pulkhali Village Doulatpur Post Office, Vivekananda Pally, Kolkata", "addr:postcode": "700139", "addr:state": "West Bengal", "amenity": "hospital", "name": "ESI Hospital", "source": "Local Knowledge"}}, {"type": "node", "id": 8132955435, "lat": 22.659215, "lon": 88.2669537, "tags": {"addr:district": "Howrah", "addr:full": "Baluhati", "addr:postcode": "711405", "addr:state": "West Bengal", "amenity": "hospital", "name": "Government Hospital, Baluhati", "source": "Local Knowledge"}}]}